start=new Date('2022-03-28T00:00:00.000Z').valueOf();
sats=[{"EPHEMERIS_TYPE":"0","SITE":"AFETR","APOAPSIS":"548.433","MEAN_MOTION_DDOT":"0.0000000000000","TLE_LINE2":"2 45082  53.0552 263.5353 0001770  57.0752 303.0407 15.06401972119271","TLE_LINE1":"1 45082U 20006AQ  22086.90298478  .00003369  00000-0  24492-3 0  9997","MEAN_ANOMALY":"303.0407","SEMIMAJOR_AXIS":"6925.343","BSTAR":"0.00024492000000","DECAY_DATE":null,"OBJECT_TYPE":"PAYLOAD","LAUNCH_DATE":"2020-01-29","FILE":"3377053","ARG_OF_PERICENTER":"57.0752","OBJECT_ID":"2020-006AQ","NORAD_CAT_ID":"45082","TIME_SYSTEM":"UTC","RCS_SIZE":"LARGE","EPOCH":"2022-03-27T21:40:17.884992","ELEMENT_SET_NO":"999","MEAN_ELEMENT_THEORY":"SGP4","PERIOD":"95.592","MEAN_MOTION_DOT":"0.00003369","PERIAPSIS":"545.982","RA_OF_ASC_NODE":"263.5353","REF_FRAME":"TEME","ECCENTRICITY":"0.00017700","OBJECT_NAME":"STARLINK-1160","REV_AT_EPOCH":"11927","INCLINATION":"53.0552","MEAN_MOTION":"15.06401972","GP_ID":"199861812","CENTER_NAME":"EARTH","COUNTRY_CODE":"US","CLASSIFICATION_TYPE":"U"},{"CENTER_NAME":"EARTH","COUNTRY_CODE":"US","INCLINATION":"53.0549","GP_ID":"199860574","MEAN_MOTION":"15.06393983","REV_AT_EPOCH":"11899","OBJECT_NAME":"STARLINK-1190","ECCENTRICITY":"0.00014980","PERIAPSIS":"546.195","RA_OF_ASC_NODE":"283.7074","REF_FRAME":"TEME","MEAN_ELEMENT_THEORY":"SGP4","PERIOD":"95.593","ELEMENT_SET_NO":"999","MEAN_MOTION_DOT":"0.00001186","CLASSIFICATION_TYPE":"U","SEMIMAJOR_AXIS":"6925.367","TLE_LINE2":"2 45083  53.0549 283.7074 0001498  64.4358 295.6786 15.06393983118999","MEAN_ANOMALY":"295.6786","TLE_LINE1":"1 45083U 20006AR  22086.86797787  .00001186  00000-0  98546-4 0  9997","DECAY_DATE":null,"BSTAR":"0.00009854600000","MEAN_MOTION_DDOT":"0.0000000000000","SITE":"AFETR","APOAPSIS":"548.269","EPHEMERIS_TYPE":"0","TIME_SYSTEM":"UTC","NORAD_CAT_ID":"45083","EPOCH":"2022-03-27T20:49:53.287968","RCS_SIZE":"LARGE","OBJECT_ID":"2020-006AR","ARG_OF_PERICENTER":"64.4358","FILE":"3377053","OBJECT_TYPE":"PAYLOAD","LAUNCH_DATE":"2020-01-29"},{"MEAN_MOTION":"15.06406243","GP_ID":"199860824","INCLINATION":"53.0551","COUNTRY_CODE":"US","CENTER_NAME":"EARTH","MEAN_MOTION_DOT":"0.00000653","ELEMENT_SET_NO":"999","PERIOD":"95.592","MEAN_ELEMENT_THEORY":"SGP4","RA_OF_ASC_NODE":"243.7813","PERIAPSIS":"546.187","ECCENTRICITY":"0.00014550","REF_FRAME":"TEME","OBJECT_NAME":"STARLINK-1173","REV_AT_EPOCH":"12000","CLASSIFICATION_TYPE":"U","MEAN_MOTION_DDOT":"0.0000000000000","BSTAR":"0.00006273100000","DECAY_DATE":null,"TLE_LINE2":"2 45084  53.0551 243.7813 0001455  70.0762 290.0384 15.06406243120007","MEAN_ANOMALY":"290.0384","TLE_LINE1":"1 45084U 20006AS  22086.84952622  .00000653  00000-0  62731-4 0  9992","SEMIMAJOR_AXIS":"6925.329","EPHEMERIS_TYPE":"0","SITE":"AFETR","APOAPSIS":"548.202","OBJECT_ID":"2020-006AS","RCS_SIZE":"LARGE","EPOCH":"2022-03-27T20:23:19.065408","NORAD_CAT_ID":"45084","TIME_SYSTEM":"UTC","LAUNCH_DATE":"2020-01-29","OBJECT_TYPE":"PAYLOAD","FILE":"3377053","ARG_OF_PERICENTER":"70.0762"},{"ARG_OF_PERICENTER":"74.4784","FILE":"3377053","OBJECT_TYPE":"PAYLOAD","LAUNCH_DATE":"2020-01-29","NORAD_CAT_ID":"45085","TIME_SYSTEM":"UTC","EPOCH":"2022-03-27T20:18:01.378656","RCS_SIZE":"LARGE","OBJECT_ID":"2020-006AT","APOAPSIS":"548.298","SITE":"AFETR","EPHEMERIS_TYPE":"0","TLE_LINE1":"1 45085U 20006AT  22086.84584929  .00003754  00000-0  27082-3 0  9998","TLE_LINE2":"2 45085  53.0533 243.7846 0001558  74.4784 285.6377 15.06398359119895","MEAN_ANOMALY":"285.6377","SEMIMAJOR_AXIS":"6925.354","BSTAR":"0.00027082000000","DECAY_DATE":null,"MEAN_MOTION_DDOT":"0.0000000000000","CLASSIFICATION_TYPE":"U","PERIAPSIS":"546.140","ECCENTRICITY":"0.00015580","RA_OF_ASC_NODE":"243.7846","REF_FRAME":"TEME","REV_AT_EPOCH":"11989","OBJECT_NAME":"STARLINK-1179","ELEMENT_SET_NO":"999","PERIOD":"95.592","MEAN_ELEMENT_THEORY":"SGP4","MEAN_MOTION_DOT":"0.00003754","COUNTRY_CODE":"US","CENTER_NAME":"EARTH","INCLINATION":"53.0533","MEAN_MOTION":"15.06398359","GP_ID":"199861076"},{"CLASSIFICATION_TYPE":"U","MEAN_MOTION_DOT":"0.00023515","MEAN_ELEMENT_THEORY":"SGP4","PERIOD":"95.252","ELEMENT_SET_NO":"999","OBJECT_NAME":"STARLINK-1181","REV_AT_EPOCH":"11951","RA_OF_ASC_NODE":"238.3634","PERIAPSIS":"530.389","REF_FRAME":"TEME","ECCENTRICITY":"0.00005950","GP_ID":"199861313","MEAN_MOTION":"15.11771389","INCLINATION":"53.0001","CENTER_NAME":"EARTH","COUNTRY_CODE":"US","LAUNCH_DATE":"2020-01-29","OBJECT_TYPE":"PAYLOAD","FILE":"3377053","ARG_OF_PERICENTER":"168.5067","OBJECT_ID":"2020-006AU","RCS_SIZE":"LARGE","EPOCH":"2022-03-27T19:50:48.409152","TIME_SYSTEM":"UTC","NORAD_CAT_ID":"45086","EPHEMERIS_TYPE":"0","SITE":"AFETR","APOAPSIS":"531.211","MEAN_MOTION_DDOT":"0.0000000000000","DECAY_DATE":null,"BSTAR":"0.00137520000000","SEMIMAJOR_AXIS":"6908.935","TLE_LINE1":"1 45086U 20006AU  22086.82694918  .00023515  00000-0  13752-2 0  9992","TLE_LINE2":"2 45086  53.0001 238.3634 0000595 168.5067 191.5937 15.11771389119510","MEAN_ANOMALY":"191.5937"},{"OBJECT_TYPE":"PAYLOAD","LAUNCH_DATE":"2020-01-29","ARG_OF_PERICENTER":"84.2553","FILE":"3377053","OBJECT_ID":"2020-006AV","TIME_SYSTEM":"UTC","NORAD_CAT_ID":"45087","EPOCH":"2022-03-27T19:56:47.414112","RCS_SIZE":"LARGE","EPHEMERIS_TYPE":"0","SITE":"AFETR","APOAPSIS":"548.123","MEAN_MOTION_DDOT":"0.0000000000000","SEMIMAJOR_AXIS":"6925.336","TLE_LINE1":"1 45087U 20006AV  22086.83110433  .00002435  00000-0  18229-3 0  9992","TLE_LINE2":"2 45087  53.0542 243.8516 0001332  84.2553 275.8588 15.06404247119557","MEAN_ANOMALY":"275.8588","DECAY_DATE":null,"BSTAR":"0.00018229000000","CLASSIFICATION_TYPE":"U","PERIOD":"95.592","MEAN_ELEMENT_THEORY":"SGP4","ELEMENT_SET_NO":"999","MEAN_MOTION_DOT":"0.00002435","OBJECT_NAME":"STARLINK-1185","REV_AT_EPOCH":"11955","RA_OF_ASC_NODE":"243.8516","PERIAPSIS":"546.278","ECCENTRICITY":"0.00013320","REF_FRAME":"TEME","INCLINATION":"53.0542","GP_ID":"199860075","MEAN_MOTION":"15.06404247","CENTER_NAME":"EARTH","COUNTRY_CODE":"US"},{"CLASSIFICATION_TYPE":"U","INCLINATION":"53.0531","MEAN_MOTION":"15.06403178","GP_ID":"199860325","CENTER_NAME":"EARTH","COUNTRY_CODE":"US","ELEMENT_SET_NO":"999","MEAN_ELEMENT_THEORY":"SGP4","PERIOD":"95.592","MEAN_MOTION_DOT":"-0.00000035","REF_FRAME":"TEME","PERIAPSIS":"546.236","RA_OF_ASC_NODE":"243.7694","ECCENTRICITY":"0.00013980","REV_AT_EPOCH":"11955","OBJECT_NAME":"STARLINK-1183","OBJECT_ID":"2020-006AW","NORAD_CAT_ID":"45088","TIME_SYSTEM":"UTC","RCS_SIZE":"LARGE","EPOCH":"2022-03-27T20:28:37.659360","OBJECT_TYPE":"PAYLOAD","LAUNCH_DATE":"2020-01-29","ARG_OF_PERICENTER":"77.1153","FILE":"3377053","MEAN_MOTION_DDOT":"0.0000000000000","TLE_LINE2":"2 45088  53.0531 243.7694 0001398  77.1153 282.9992 15.06403178119551","MEAN_ANOMALY":"282.9992","TLE_LINE1":"1 45088U 20006AW  22086.85321365 -.00000035  00000-0  16516-4 0  9996","SEMIMAJOR_AXIS":"6925.339","BSTAR":"0.00001651600000","DECAY_DATE":null,"EPHEMERIS_TYPE":"0","SITE":"AFETR","APOAPSIS":"548.172"},{"CLASSIFICATION_TYPE":"U","REV_AT_EPOCH":"11954","OBJECT_NAME":"STARLINK-1136","PERIAPSIS":"546.193","REF_FRAME":"TEME","RA_OF_ASC_NODE":"244.3576","ECCENTRICITY":"0.00014680","MEAN_ELEMENT_THEORY":"SGP4","PERIOD":"95.592","ELEMENT_SET_NO":"999","MEAN_MOTION_DOT":"-0.00000565","COUNTRY_CODE":"US","CENTER_NAME":"EARTH","INCLINATION":"53.0592","GP_ID":"199861576","MEAN_MOTION":"15.06401270","ARG_OF_PERICENTER":"72.9946","FILE":"3377053","OBJECT_TYPE":"PAYLOAD","LAUNCH_DATE":"2020-01-29","TIME_SYSTEM":"UTC","NORAD_CAT_ID":"45089","RCS_SIZE":"LARGE","EPOCH":"2022-03-27T17:16:12.266688","OBJECT_ID":"2020-006AX","SITE":"AFETR","APOAPSIS":"548.226","EPHEMERIS_TYPE":"0","SEMIMAJOR_AXIS":"6925.345","TLE_LINE2":"2 45089  53.0592 244.3576 0001468  72.9946 287.1204 15.06401270119549","MEAN_ANOMALY":"287.1204","TLE_LINE1":"1 45089U 20006AX  22086.71958642 -.00000565  00000-0 -19065-4 0  9997","DECAY_DATE":null,"BSTAR":"-0.00001906500000","MEAN_MOTION_DDOT":"0.0000000000000"},{"OBJECT_TYPE":"PAYLOAD","LAUNCH_DATE":"2020-01-29","FILE":"3377053","ARG_OF_PERICENTER":"81.2982","OBJECT_ID":"2020-006AY","TIME_SYSTEM":"UTC","NORAD_CAT_ID":"45090","EPOCH":"2022-03-27T20:07:24.116448","RCS_SIZE":"LARGE","EPHEMERIS_TYPE":"0","SITE":"AFETR","APOAPSIS":"548.264","MEAN_MOTION_DDOT":"0.0000000000000","SEMIMAJOR_AXIS":"6925.339","TLE_LINE1":"1 45090U 20006AY  22086.83847357  .00003893  00000-0  28011-3 0  9997","TLE_LINE2":"2 45090  53.0538 243.8284 0001530  81.2982 278.8180 15.06403114119554","MEAN_ANOMALY":"278.8180","DECAY_DATE":null,"BSTAR":"0.00028011000000","CLASSIFICATION_TYPE":"U","PERIOD":"95.592","MEAN_ELEMENT_THEORY":"SGP4","ELEMENT_SET_NO":"999","MEAN_MOTION_DOT":"0.00003893","REV_AT_EPOCH":"11955","OBJECT_NAME":"STARLINK-1176","RA_OF_ASC_NODE":"243.8284","PERIAPSIS":"546.144","ECCENTRICITY":"0.00015300","REF_FRAME":"TEME","INCLINATION":"53.0538","GP_ID":"199861813","MEAN_MOTION":"15.06403114","COUNTRY_CODE":"US","CENTER_NAME":"EARTH"},{"OBJECT_TYPE":"PAYLOAD","LAUNCH_DATE":"2020-01-29","ARG_OF_PERICENTER":"69.1113","FILE":"3377053","OBJECT_ID":"2020-006BA","NORAD_CAT_ID":"45092","TIME_SYSTEM":"UTC","RCS_SIZE":"LARGE","EPOCH":"2022-03-27T19:30:15.074208","EPHEMERIS_TYPE":"0","APOAPSIS":"548.320","SITE":"AFETR","MEAN_MOTION_DDOT":"0.0000000000000","TLE_LINE2":"2 45092  53.0544 243.9524 0001589  69.1113 291.0046 15.06398115119547","MEAN_ANOMALY":"291.0046","TLE_LINE1":"1 45092U 20006BA  22086.81267447  .00002030  00000-0  15513-3 0  9998","SEMIMAJOR_AXIS":"6925.354","BSTAR":"0.00015513000000","DECAY_DATE":null,"CLASSIFICATION_TYPE":"U","ELEMENT_SET_NO":"999","MEAN_ELEMENT_THEORY":"SGP4","PERIOD":"95.592","MEAN_MOTION_DOT":"0.00002030","PERIAPSIS":"546.119","RA_OF_ASC_NODE":"243.9524","REF_FRAME":"TEME","ECCENTRICITY":"0.00015890","REV_AT_EPOCH":"11954","OBJECT_NAME":"STARLINK-1137","INCLINATION":"53.0544","MEAN_MOTION":"15.06398115","GP_ID":"199860575","COUNTRY_CODE":"US","CENTER_NAME":"EARTH"}];
